COSMOS 2534 [GLONASS-M] 
1 44299U 19030A   26204.36418141  .00000091  00000+0  00000+0 0  9991
2 44299  64.3713 191.3984 0013416 275.1477 257.7839  2.13102412 55699
BEIDOU-3 IGSO-2         
1 44337U 19035A   26202.76760661 -.00000106  00000+0  00000+0 0  9996
2 44337  55.2573 158.5594 0039050 212.8700 322.7485  1.00289985 26016
NAVSTAR 78 (USA 293)    
1 44506U 19056A   26203.78587352 -.00000112  00000+0  00000+0 0  9991
2 44506  55.6178 329.7278 0063752 198.2915 333.8944  2.00570518 50781
BEIDOU-3 M24            
1 44542U 19061A   26204.21835502  .00000073  00000+0  00000+0 0  9994
2 44542  54.3972 181.5127 0008768   0.5106 359.4730  1.86229293 46460
BEIDOU-3 M23            
1 44543U 19061B   26204.35072186  .00000072  00000+0  00000+0 0  9990
2 44543  54.3962 181.4765 0006028 342.0562  18.0390  1.86227509 46473
EUTELSAT 5 WEST B       
1 44624U 19067A   26204.39745606 -.00000037  00000+0  00000+0 0  9996
2 44624   0.0722 327.8629 0003298 152.2857 319.0524  1.00272182 24803
BEIDOU-3 M22            
1 44793U 19078A   26201.91091067 -.00000098  00000+0  00000+0 0  9992
2 44793  53.9028 298.6402 0005603  50.2813 309.8054  1.86227204 45279
BEIDOU-3 M21            
1 44794U 19078B   26203.66162958 -.00000094  00000+0  00000+0 0  9991
2 44794  53.8746 298.5385 0003510  49.7374 310.3307  1.86227707 45316
COSMOS 2544 [GLONASS-M] 
1 44850U 19088A   26204.16243200 -.00000046  00000+0  00000+0 0  9998
2 44850  65.5856  72.5304 0012035 253.5575 106.3785  2.13102883 51488
BEIDOU-3 M19            
1 44864U 19090A   26204.16652241 -.00000073  00000+0  00000+0 0  9995
2 44864  56.5910  61.6011 0016527 296.6472 239.5314  1.86231503 44909
BEIDOU-3 M20            
1 44865U 19090B   26202.96464863 -.00000079  00000+0  00000+0 0  9999
2 44865  56.5915  61.6754 0014231 312.1692 227.7948  1.86231478 44865
BEIDOU-3 G2             
1 45344U 20017A   26204.62816659 -.00000138  00000+0  00000+0 0  9998
2 45344   2.9367  47.8528 0002136  58.3923 141.2873  1.00272731 23627
COSMOS 2545 [GLONASS-M] 
1 45358U 20018A   26204.35735539 -.00000088  00000+0  00000+0 0  9995
2 45358  64.3311 311.1469 0009943 230.3767 129.5577  2.13102568 49437
BEIDOU-3 G3             
1 45807U 20040A   26204.63422703 -.00000351  00000+0  00000+0 0  9999
2 45807   2.5348  67.5038 0002273 317.8904 254.8469  1.00273010 22436
NAVSTAR 79 (USA 304)    
1 45854U 20041A   26203.87491671 -.00000079  00000+0  00000+0 0  9994
2 45854  56.6939  27.5596 0065610 204.6648 328.6198  2.00558039 44757
GALAXY 30 (G-30)        
1 46114U 20056C   26204.27708715  .00000042  00000+0  00000+0 0  9994
2 46114   0.0140  70.3799 0002268  48.6314 156.7393  1.00271616 21654
COSMOS 2547 [GLONASS-K] 
1 46805U 20075A   26201.26230815  .00000083  00000+0  00000+0 0  9994
2 46805  64.6016 191.3717 0009465 239.9348 119.9732  2.13099966 44611
NAVSTAR 80 (USA 309)    
1 46826U 20078A   26203.40249986  .00000084  00000+0  00000+0 0  9998
2 46826  53.9765 209.3500 0074707 207.9626 321.8106  2.00565122 42212
NAVSTAR 81 (USA 319)    
1 48859U 21054A   26204.47983275 -.00000113  00000+0  00000+0 0  9999
2 48859  55.1548 331.0007 0026704 228.6222 185.4073  2.00566985 37482
QZS-1R (MICHIBIKI-1R)   
1 49336U 21096A   26204.54211512 -.00000328  00000+0  00000+0 0  9990
2 49336  37.5340  79.0424 0755622 272.3546 275.8173  1.00242971 17378
GSAT0223 (GALILEO 27)   
1 49809U 21116A   26204.35640612 -.00000106  00000+0  00000+0 0  9998
2 49809  57.1472 340.6987 0002572 195.8293 161.8890  1.70476582 28797
GSAT0224 (GALILEO 28)   
1 49810U 21116B   26204.18061353 -.00000106  00000+0  00000+0 0  9990
2 49810  57.1469 340.7020 0002038 183.2732 179.1905  1.70476626 28822
COSMOS 2557 [GLONASS-K] 
1 52984U 22075A   26201.89567594 -.00000088  00000+0  00000+0 0  9993
2 52984  64.2766 313.2973 0010827 270.8513  89.0451  2.13102143 31438
COSMOS 2559 [GLONASS-K] 
1 54031U 22130A   26202.65390199 -.00000090  00000+0  00000+0 0  9993
2 54031  64.2486 313.3533 0013183 181.8332 178.1821  2.13101809 29428
COSMOS 2564 [GLONASS-M] 
1 54377U 22161A   26202.96626008  .00000094  00000+0  00000+0 0  9998
2 54377  64.7442 191.5572 0012170 224.6979 135.2103  2.13102079 28375
NAVSTAR 82 (USA 343)    
1 55268U 23009A   26203.85808700  .00000007  00000+0  00000+0 0  9994
2 55268  55.1243 147.1168 0006263 321.9041  41.9521  2.00569256 25962
BEIDOU-3 G4             
1 56564U 23066A   26204.64003372 -.00000276  00000+0  00000+0 0  9996
2 56564   0.4543 341.2898 0005180 182.3600 148.1854  1.00270337 11751
NVS-01 (IRNSS-1J)       
1 56759U 23076A   26204.54211512 -.00000329  00000+0  00000+0 0  9998
2 56759   2.0827 242.6869 0002909  16.9054   6.3593  1.00275173 11481
COSMOS 2569 [GLONASS-K2]
1 57517U 23114A   26203.91704728 -.00000048  00000+0  00000+0 0  9998
2 57517  65.3229  71.4159 0009429 295.2211  64.7491  2.13103906 23020
BEIDOU-3 M28            
1 58654U 23207A   26202.66461816 -.00000081  00000+0  00000+0 0  9990
2 58654  55.7837  61.1401 0002213   9.0129 351.0521  1.86229818 17489
BEIDOU-3 M26            
1 58655U 23207B   26203.53603147 -.00000079  00000+0  00000+0 0  9990
2 58655  55.7870  61.0974 0001649 323.4621  36.5888  1.86229852 17482
