OBJECT_NAME,OBJECT_ID,EPOCH,MEAN_MOTION,ECCENTRICITY,INCLINATION,RA_OF_ASC_NODE,ARG_OF_PERICENTER,MEAN_ANOMALY,EPHEMERIS_TYPE,CLASSIFICATION_TYPE,NORAD_CAT_ID,ELEMENT_SET_NO,REV_AT_EPOCH,BSTAR,MEAN_MOTION_DOT,MEAN_MOTION_DDOT
COSMOS 2534 (758),2019-030A,2026-07-23T08:44:25.273824,2.13102412,.00134162,64.3713,191.3984,275.1477,257.7839,0,U,44299,999,5569,0,.91E-6,0
BEIDOU-3 IGSO-2 (C39),2019-035A,2026-07-21T18:25:21.211104,1.00289985,.00390505,55.2573,158.5594,212.8700,322.7485,0,U,44337,999,2601,0,-.106E-5,0
GPS BIII-2  (PRN 18),2019-056A,2026-07-22T18:51:39.472128,2.00570518,.00637525,55.6178,329.7278,198.2915,333.8944,0,U,44506,999,5078,0,-.112E-5,0
BEIDOU-3 M24 (C46),2019-061A,2026-07-23T05:14:25.873728,1.86229293,.00087689,54.3972,181.5127,0.5106,359.4730,0,U,44542,999,4646,0,.73E-6,0
BEIDOU-3 M23 (C45),2019-061B,2026-07-23T08:25:02.368704,1.86227509,.00060288,54.3962,181.4765,342.0562,18.0390,0,U,44543,999,4647,0,.72E-6,0
EUTELSAT 5 WEST B (EGNOS/PRN 121),2019-067A,2026-07-23T09:32:20.203584,1.00272182,.00032982,0.0722,327.8629,152.2857,319.0524,0,U,44624,999,2480,0,-.37E-6,0
BEIDOU-3 M22 (C44),2019-078A,2026-07-20T21:51:42.681888,1.86227204,.00056032,53.9028,298.6402,50.2813,309.8054,0,U,44793,999,4527,0,-.98E-6,0
BEIDOU-3 M21 (C43),2019-078B,2026-07-22T15:52:44.795712,1.86227707,.00035105,53.8746,298.5385,49.7374,310.3307,0,U,44794,999,4531,0,-.94E-6,0
COSMOS 2544 (759),2019-088A,2026-07-23T03:53:54.124800,2.13102883,.00120359,65.5856,72.5304,253.5575,106.3785,0,U,44850,999,5148,0,-.46E-6,0
BEIDOU-3 M19 (C41),2019-090A,2026-07-23T03:59:47.536224,1.86231503,.00165277,56.5910,61.6011,296.6472,239.5314,0,U,44864,999,4490,0,-.73E-6,0
BEIDOU-3 M20 (C42),2019-090B,2026-07-21T23:09:05.641632,1.86231478,.00142312,56.5915,61.6754,312.1692,227.7948,0,U,44865,999,4486,0,-.79E-6,0
BEIDOU-3 G2 (C60),2020-017A,2026-07-23T15:04:33.593376,1.00272731,.00021362,2.9367,47.8528,58.3923,141.2873,0,U,45344,999,2362,0,-.138E-5,0
COSMOS 2545 (760),2020-018A,2026-07-23T08:34:35.505696,2.13102568,.00099432,64.3311,311.1469,230.3767,129.5577,0,U,45358,999,4943,0,-.88E-6,0
BEIDOU-3 G3 (C61),2020-040A,2026-07-23T15:13:17.215392,1.00273010,.00022735,2.5348,67.5038,317.8904,254.8469,0,U,45807,999,2243,0,-.351E-5,0
GPS BIII-3  (PRN 23),2020-041A,2026-07-22T20:59:52.803744,2.00558039,.00656102,56.6939,27.5596,204.6648,328.6198,0,U,45854,999,4475,0,-.79E-6,0
GALAXY 30 (WAAS/PRN 135),2020-056C,2026-07-23T06:39:00.329760,1.00271616,.00022684,0.0140,70.3799,48.6314,156.7393,0,U,46114,999,2165,0,.42E-6,0
COSMOS 2547 (705K),2020-075A,2026-07-20T06:17:43.424160,2.13099966,.00094658,64.6016,191.3717,239.9348,119.9732,0,U,46805,999,4461,0,.83E-6,0
GPS BIII-4  (PRN 14),2020-078A,2026-07-22T09:39:35.987904,2.00565122,.00747076,53.9765,209.3500,207.9626,321.8106,0,U,46826,999,4221,0,.84E-6,0
GPS BIII-5  (PRN 11),2021-054A,2026-07-23T11:30:57.549600,2.00566985,.00267048,55.1548,331.0007,228.6222,185.4073,0,U,48859,999,3748,0,-.113E-5,0
QZS-1R (QZSS/PRN 196),2021-096A,2026-07-23T13:00:38.746368,1.00242971,.07556224,37.5340,79.0424,272.3546,275.8173,0,U,49336,999,1737,0,-.328E-5,0
GSAT0223 (GALILEO 27),2021-116A,2026-07-23T08:33:13.488768,1.70476582,.00025725,57.1472,340.6987,195.8293,161.8890,0,U,49809,999,2879,0,-.106E-5,0
GSAT0224 (GALILEO 28),2021-116B,2026-07-23T04:20:05.008992,1.70476626,.0002038,57.1469,340.7020,183.2732,179.1905,0,U,49810,999,2882,0,-.106E-5,0
COSMOS 2557 (706K),2022-075A,2026-07-20T21:29:46.401216,2.13102143,.00108276,64.2766,313.2973,270.8513,89.0451,0,U,52984,999,3143,0,-.88E-6,0
COSMOS 2559 (707K),2022-130A,2026-07-21T15:41:37.131936,2.13101809,.00131833,64.2486,313.3533,181.8332,178.1821,0,U,54031,999,2942,0,-.9E-6,0
COSMOS 2564 (761),2022-161A,2026-07-21T23:11:24.870912,2.13102079,.00121703,64.7442,191.5572,224.6979,135.2103,0,U,54377,999,2837,0,.94E-6,0
GPS BIII-6  (PRN 28),2023-009A,2026-07-22T20:35:38.716800,2.00569256,.00062634,55.1243,147.1168,321.9041,41.9521,0,U,55268,999,2596,0,.7E-7,0
BEIDOU-3 G4 (C62),2023-066A,2026-07-23T15:21:38.913408,1.00270337,.00051807,0.4543,341.2898,182.3600,148.1854,0,U,56564,999,1175,0,-.276E-5,0
NVS-01 (IRNSS-1J),2023-076A,2026-07-23T13:00:38.746368,1.00275173,.00029098,2.0827,242.6869,16.9054,6.3593,0,U,56759,999,1148,0,-.329E-5,0
COSMOS 2569 (703K),2023-114A,2026-07-22T22:00:32.884992,2.13103906,.00094297,65.3229,71.4159,295.2211,64.7491,0,U,57517,999,2302,0,-.48E-6,0
BEIDOU-3 M28 (C50),2023-207A,2026-07-21T15:57:03.009024,1.86229818,.00022135,55.7837,61.1401,9.0129,351.0521,0,U,58654,999,1748,0,-.81E-6,0
BEIDOU-3 M26 (C48),2023-207B,2026-07-22T12:51:53.119008,1.86229852,.00016491,55.7870,61.0974,323.4621,36.5888,0,U,58655,999,1748,0,-.79E-6,0
